COSMOS 2593             
1 65269U 25182C   26064.58275646  .00023585  20678-5  58016-4 0  9992
2 65269  96.5882 357.8369 0007309 166.2302 193.9177 15.96412483 31169
COSMOS 2594             
1 65270U 25182D   26065.16257574  .00107567  62806-5  25822-3 0  9999
2 65270  96.5909 358.3740 0007121 166.0438 194.1039 15.96514018 31279
ISS OBJECT XK           
1 65731U 98067XK  26066.34380741  .02003917  42447-2  14668-2 0  9994
2 65731  51.6132  58.5421 0003702 106.1301 254.0123 16.16022441 26520
STARLINK-36618          
1 67847U 26033AC  26066.58334491  .00025380  86045-5  83376-4 0  9990
2 67847  42.9836 282.1368 0002125 272.2505 116.2535 15.91508191  4321
STARLINK-36818          
1 67879U 26035A   26066.58334491 -.01116163  37039-3 -33412-2 0  9991
2 67879  97.2747 358.7595 0001163  98.4777 276.3035 15.92355439  3410
STARLINK-36821          
1 67880U 26035B   26066.58334491 -.01119484  37279-3 -33349-2 0  9997
2 67880  97.2741 358.7629 0001115  94.0481 288.6403 15.92450147  3412
STARLINK-36808          
1 67881U 26035C   26066.58334491 -.01115741  37037-3 -33285-2 0  9991
2 67881  97.2744 358.7609 0001181  94.5260 283.4599 15.92421696  3413
STARLINK-36817          
1 67882U 26035D   26066.58334491 -.01137787  38444-3 -33776-2 0  9994
2 67882  97.2730 358.7662 0001153  95.3033 296.6216 15.92520187  3411
STARLINK-36856          
1 67883U 26035E   26066.58334491 -.01127253  37770-3 -33534-2 0  9995
2 67883  97.2737 358.7647 0001125  92.3879 295.1692 15.92477815  3417
STARLINK-36842          
1 67884U 26035F   26066.58334491 -.01134569  38259-3 -33605-2 0  9996
2 67884  97.2730 358.7680 0001085  82.3446 313.7208 15.92563378  3412
STARLINK-36826          
1 67885U 26035G   26066.58334491 -.01137875  38491-3 -33591-2 0  9992
2 67885  97.2729 358.7695 0001109  91.5594 307.9913 15.92627757  3410
STARLINK-36390          
1 67886U 26035H   26066.58334491 -.01142141  38772-3 -33662-2 0  9996
2 67886  97.2724 358.7714 0001144  89.9145 314.4784 15.92659789  3464
STARLINK-36368          
1 67887U 26035J   26066.58334491 -.01145263  38983-3 -33688-2 0  9997
2 67887  97.2722 358.7732 0001242  99.1379 309.9003 15.92698231  3417
STARLINK-36801          
1 67888U 26035K   26066.58334491 -.01155220  39631-3 -33906-2 0  9996
2 67888  97.2717 358.7751 0001261  96.1863 317.3658 15.92742351  3411
STARLINK-36372          
1 67889U 26035L   26066.58334491 -.01157271  39799-3 -33804-2 0  9997
2 67889  97.2709 358.7781 0001259  95.5859 326.7016 15.92835022  3411
STARLINK-36363          
1 67890U 26035M   26066.58334491 -.01160033  39952-3 -33987-2 0  9992
2 67890  97.2717 358.7773 0001226  95.7461 322.7798 15.92777099  3410
